NORAD_CAT_ID,OBJECT_NAME,OBJECT_TYPE,EPOCH,MEAN_MOTION,ECCENTRICITY,INCLINATION,RA_OF_ASC_NODE,ARG_OF_PERICENTER,MEAN_ANOMALY,BSTAR,MEAN_MOTION_DOT,MEAN_MOTION_DDOT,TLE_LINE0,TLE_LINE1,TLE_LINE2,SEMIMAJOR_AXIS,PERIOD,APOGEE,PERIGEE,DECAYED
51739.0,STARLINK-3516,PAYLOAD,2024-05-07 04:08:52,15.08848685,0.0001357,53.2173,93.6734,94.2164,265.8983,8.5553e-05,1.074e-05,0.0,0 STARLINK-3516,1 51739U 22016AB  24128.17283494  .00001074  00000-0  85553-4 0  9993,2 51739  53.2173  93.6734 0001357  94.2164 265.8983 15.08848685122180,6917.854,95.437,540.658,538.78,0.0
51739.0,STARLINK-3516,PAYLOAD,2024-05-07 21:38:07,15.08840814,0.0001873,53.2173,90.4027,88.3799,271.7407,3.4532e-05,2.61e-06,0.0,0 STARLINK-3516,1 51739U 22016AB  24128.90147996  .00000261  00000-0  34532-4 0  9998,2 51739  53.2173  90.4027 0001873  88.3799 271.7407 15.08840814123411,6917.878,95.438,541.039,538.447,0.0
51739.0,STARLINK-3516,PAYLOAD,2024-05-08 02:24:17,15.0883325,0.0001393,53.2172,89.5105,93.6609,266.4542,-2.9554e-05,-7.58e-06,0.0,0 STARLINK-3516,1 51739U 22016AB  24129.10020555 -.00000758  00000-0 -29554-4 0  9993,2 51739  53.2172  89.5105 0001393  93.6609 266.4542 15.08833250123442,6917.901,95.438,540.73,538.802,0.0
51739.0,STARLINK-3516,PAYLOAD,2024-05-08 07:10:27,15.08836057,0.0001462,53.2177,88.6177,99.4382,260.6775,-2.7925e-06,-3.32e-06,0.0,0 STARLINK-3516,1 51739U 22016AB  24129.29892409 -.00000332  00000-0 -27925-5 0  9997,2 51739  53.2177  88.6177 0001462  99.4382 260.6775 15.08836057122356,6917.892,95.438,540.769,538.746,0.0
51739.0,STARLINK-3516,PAYLOAD,2024-05-09 03:50:27,15.0884584,0.0001354,53.2179,84.7536,89.0595,271.0552,0.00012186,1.652e-05,0.0,0 STARLINK-3516,1 51739U 22016AB  24130.16003773  .00001652  00000-0  12186-3 0  9998,2 51739  53.2179  84.7536 0001354  89.0595 271.0552 15.08845840123603,6917.863,95.437,540.664,538.791,0.0
51739.0,STARLINK-3516,PAYLOAD,2024-05-09 13:22:45,15.08855122,0.0001289,53.2168,82.9678,87.5314,272.5825,0.00028869,4.311e-05,0.0,0 STARLINK-3516,1 51739U 22016AB  24130.55747301  .00004311  00000-0  28869-3 0  9993,2 51739  53.2168  82.9678 0001289  87.5314 272.5825 15.08855122122542,6917.834,95.437,540.591,538.807,0.0
51739.0,STARLINK-3516,PAYLOAD,2024-05-10 03:41:14,15.08837921,0.0001455,53.2176,80.2924,84.3049,275.8109,9.4883e-05,1.222e-05,0.0,0 STARLINK-3516,1 51739U 22016AB  24131.15364417  .00001222  00000-0  94883-4 0  9991,2 51739  53.2176  80.2924 0001455  84.3049 275.8109 15.08837921123753,6917.887,95.438,540.758,538.745,0.0
51739.0,STARLINK-3516,PAYLOAD,2024-05-10 13:13:33,15.08853986,0.0001487,53.2188,78.5122,101.0477,259.0682,0.00036597,5.543e-05,0.0,0 STARLINK-3516,1 51739U 22016AB  24131.55107748  .00005543  00000-0  36597-3 0  9994,2 51739  53.2188  78.5122 0001487 101.0477 259.0682 15.08853986123819,6917.838,95.437,540.731,538.674,0.0
51739.0,STARLINK-3516,PAYLOAD,2024-05-10 19:35:05,15.0884858,0.0002076,53.2184,77.3226,93.8146,266.3083,0.00026757,3.974e-05,0.0,0 STARLINK-3516,1 51739U 22016AB  24131.81604055  .00003974  00000-0  26757-3 0  9999,2 51739  53.2184  77.3226 0002076  93.8146 266.3083 15.08848580122733,6917.854,95.437,541.155,538.283,0.0
51739.0,STARLINK-3516,PAYLOAD,2024-05-11 13:04:18,15.08920626,0.0001453,53.2179,74.0515,86.4478,273.668,0.0023006,0.00036598,0.0,0 STARLINK-3516,1 51739U 22016AB  24132.54465406  .00036598  00000-0  23006-2 0  9996,2 51739  53.2179  74.0515 0001453  86.4478 273.6680 15.08920626123968,6917.634,95.432,540.504,538.494,0.0
51739.0,STARLINK-3516,PAYLOAD,2024-05-11 19:25:50,15.08907979,0.0003007,53.2181,72.8657,84.2426,275.8909,0.0016013,0.00025337,0.0,0 STARLINK-3516,1 51739U 22016AB  24132.80961456  .00025337  00000-0  16013-2 0  9990,2 51739  53.2181  72.8657 0003007  84.2426 275.8909 15.08907979124000,6917.673,95.433,541.618,537.457,0.0
51739.0,STARLINK-3516,PAYLOAD,2024-05-12 03:22:49,15.08731934,0.0001211,53.2168,71.3748,90.2282,269.8849,-0.0036563,-0.00057839,0.0,0 STARLINK-3516,1 51739U 22016AB  24133.14084977 -.00057839  00000-0 -36563-2 0  9998,2 51739  53.2168  71.3748 0001211  90.2282 269.8849 15.08731934124059,6918.211,95.444,540.914,539.238,0.0
51739.0,STARLINK-3516,PAYLOAD,2024-05-12 19:16:45,15.0871969,9.72e-05,53.2165,68.3991,93.4761,266.6342,0.0013685,0.00021487,0.0,0 STARLINK-3516,1 51739U 22016AB  24133.80330083  .00021487  00000-0  13685-2 0  9991,2 51739  53.2165  68.3991 0000972  93.4761 266.6342 15.08719690124151,6918.248,95.445,540.786,539.441,0.0
51739.0,STARLINK-3516,PAYLOAD,2024-05-13 04:49:04,15.08826111,0.0001425,53.2164,66.616,119.0303,241.0832,0.0026202,0.00041643,0.0,0 STARLINK-3516,1 51739U 22016AB  24134.20074671  .00041643  00000-0  26202-2 0  9999,2 51739  53.2164  66.6160 0001425 119.0303 241.0832 15.08826111124215,6917.923,95.438,540.774,538.802,0.0
51739.0,STARLINK-3516,PAYLOAD,2024-05-13 12:46:00,15.0884177,0.0001441,53.2166,65.1296,117.5167,242.5971,0.0020977,0.00033256,0.0,0 STARLINK-3516,1 51739U 22016AB  24134.53194790  .00033256  00000-0  20977-2 0  9994,2 51739  53.2166  65.1296 0001441 117.5167 242.5971 15.08841770123149,6917.875,95.437,540.737,538.743,0.0
51739.0,STARLINK-3516,PAYLOAD,2024-05-14 12:36:45,15.0889912,0.0001309,53.2159,60.6673,121.6758,238.4362,0.0015518,0.00024535,0.0,0 STARLINK-3516,1 51739U 22016AB  24135.52552265  .00024535  00000-0  15518-2 0  9994,2 51739  53.2159  60.6673 0001309 121.6758 238.4362 15.08899120123291,6917.7,95.434,540.47,538.659,0.0
51739.0,STARLINK-3516,PAYLOAD,2024-05-14 22:09:02,15.0890707,0.0001332,53.2168,58.8839,120.2284,239.884,0.0014127,0.00022308,0.0,0 STARLINK-3516,1 51739U 22016AB  24135.92294843  .00022308  00000-0  14127-2 0  9994,2 51739  53.2168  58.8839 0001332 120.2284 239.8840 15.08907070123356,6917.675,95.433,540.462,538.619,0.0
51739.0,STARLINK-3516,PAYLOAD,2024-05-15 04:30:34,15.08922954,0.0001367,53.2167,57.6947,116.9144,243.1988,0.0016623,0.00026327,0.0,0 STARLINK-3516,1 51739U 22016AB  24136.18789431  .00026327  00000-0  16623-2 0  9993,2 51739  53.2167  57.6947 0001367 116.9144 243.1988 15.08922954124515,6917.627,95.432,540.437,538.546,0.0
51739.0,STARLINK-3516,PAYLOAD,2024-05-15 21:59:47,15.08879426,0.0001679,53.2182,54.4213,131.3594,228.7543,0.0010568,0.00016589,0.0,0 STARLINK-3516,1 51739U 22016AB  24136.91652253  .00016589  00000-0  10568-2 0  9996,2 51739  53.2182  54.4213 0001679 131.3594 228.7543 15.08879426123508,6917.76,95.435,540.786,538.463,0.0
51739.0,STARLINK-3516,PAYLOAD,2024-05-16 01:10:33,15.08864194,0.0001207,53.2179,53.826,95.7062,264.4068,-0.00027669,-4.692e-05,0.0,0 STARLINK-3516,1 51739U 22016AB  24137.04900122 -.00004692  00000-0 -27669-3 0  9997,2 51739  53.2179  53.8260 0001207  95.7062 264.4068 15.08864194124640,6917.806,95.436,540.506,538.836,0.0
51739.0,STARLINK-3516,PAYLOAD,2024-05-16 18:39:48,15.08854531,0.0001131,53.2177,50.5544,91.1037,269.0085,0.00092119,0.00014409,0.0,0 STARLINK-3516,1 51739U 22016AB  24137.77764262  .00014409  00000-0  92119-3 0  9997,2 51739  53.2177  50.5544 0001131  91.1037 269.0085 15.08854531124751,6917.836,95.437,540.483,538.919,0.0
51739.0,STARLINK-3516,PAYLOAD,2024-05-17 01:01:20,15.08844712,0.0001032,53.2168,49.368,79.3697,280.7411,0.00024889,3.676e-05,0.0,0 STARLINK-3516,1 51739U 22016AB  24138.04260119  .00003676  00000-0  24889-3 0  9993,2 51739  53.2168  49.3680 0001032  79.3697 280.7411 15.08844712124795,6917.866,95.437,540.445,539.017,0.0
51739.0,STARLINK-3516,PAYLOAD,2024-05-17 10:33:39,15.08875313,7.16e-05,53.2191,47.5827,75.3551,284.7521,0.001233,0.00019409,0.0,0 STARLINK-3516,1 51739U 22016AB  24138.44004003  .00019409  00000-0  12330-2 0  9993,2 51739  53.2191  47.5827 0000716  75.3551 284.7521 15.08875313124851,6917.772,95.435,540.133,539.142,0.0
51739.0,STARLINK-3516,PAYLOAD,2024-05-17 21:41:22,15.08817133,0.0001315,53.217,45.501,93.249,266.8652,-0.00045256,-7.479e-05,0.0,0 STARLINK-3516,1 51739U 22016AB  24138.90373239 -.00007479  00000-0 -45256-3 0  9994,2 51739  53.2170  45.5010 0001315  93.2490 266.8652 15.08817133124927,6917.95,95.439,540.725,538.906,0.0
51739.0,STARLINK-3516,PAYLOAD,2024-05-18 04:02:54,15.08831606,0.0001248,53.2174,44.3118,81.3418,278.7716,-2.1511e-05,-6.3e-06,0.0,0 STARLINK-3516,1 51739U 22016AB  24139.16869155 -.00000630  00000-0 -21511-4 0  9991,2 51739  53.2174  44.3118 0001248  81.3418 278.7716 15.08831606124968,6917.906,95.438,540.634,538.908,0.0
51739.0,STARLINK-3516,PAYLOAD,2024-05-18 10:24:26,15.08856306,6.99e-05,53.2171,43.1223,53.0062,307.0994,0.00043461,6.639e-05,0.0,0 STARLINK-3516,1 51739U 22016AB  24139.43363974  .00006639  00000-0  43461-3 0  9999,2 51739  53.2171  43.1223 0000699  53.0062 307.0994 15.08856306125003,6917.831,95.437,540.179,539.212,0.0
51739.0,STARLINK-3516,PAYLOAD,2024-05-18 21:32:09,15.08825335,0.0001323,53.2158,41.0409,65.2813,294.8317,-8.3105e-05,-1.61e-05,0.0,0 STARLINK-3516,1 51739U 22016AB  24139.89733658 -.00001610  00000-0 -83105-4 0  9995,2 51739  53.2158  41.0409 0001323  65.2813 294.8317 15.08825335125072,6917.925,95.438,540.705,538.875,0.0
51739.0,STARLINK-3516,PAYLOAD,2024-05-19 02:18:18,15.08845107,0.0001326,53.2168,40.1502,80.7627,279.3516,0.00040514,6.167e-05,0.0,0 STARLINK-3516,1 51739U 22016AB  24140.09605187  .00006167  00000-0  40514-3 0  9990,2 51739  53.2168  40.1502 0001326  80.7627 279.3516 15.08845107125107,6917.865,95.437,540.647,538.812,0.0
51739.0,STARLINK-3516,PAYLOAD,2024-05-19 21:22:56,15.08837071,9.76e-05,53.2166,36.5781,92.8395,267.2709,0.00019511,2.819e-05,0.0,0 STARLINK-3516,1 51739U 22016AB  24140.89093614  .00002819  00000-0  19511-3 0  9997,2 51739  53.2166  36.5781 0000976  92.8395 267.2709 15.08837071125223,6917.889,95.438,540.43,539.079,0.0
51739.0,STARLINK-3516,PAYLOAD,2024-05-20 02:09:06,15.08836899,0.0001177,53.217,35.6879,79.2046,280.9078,0.00021699,3.167e-05,0.0,0 STARLINK-3516,1 51739U 22016AB  24141.08965828  .00003167  00000-0  21699-3 0  9991,2 51739  53.2170  35.6879 0001177  79.2046 280.9078 15.08836899124139,6917.89,95.438,540.569,538.941,0.0
